[{"OBJECT_NAME":"STARLINK-31891","OBJECT_ID":"2024-097V","EPOCH":"2025-08-20T07:11:01.050144","MEAN_MOTION":15.27568926,"ECCENTRICITY":0.0001065,"INCLINATION":43.0015,"RA_OF_ASC_NODE":331.9758,"ARG_OF_PERICENTER":257.178,"MEAN_ANOMALY":102.8953,"EPHEMERIS_TYPE":0,"CLASSIFICATION_TYPE":"U","NORAD_CAT_ID":59854,"ELEMENT_SET_NO":999,"REV_AT_EPOCH":7113,"BSTAR":-1.9115e-5,"MEAN_MOTION_DOT":-7.88e-6,"MEAN_MOTION_DDOT":0},{"OBJECT_NAME":"STARLINK-31882","OBJECT_ID":"2024-097W","EPOCH":"2025-08-20T08:11:23.438400","MEAN_MOTION":15.27580738,"ECCENTRICITY":9.0e-5,"INCLINATION":43.0019,"RA_OF_ASC_NODE":324.4912,"ARG_OF_PERICENTER":263.1481,"MEAN_ANOMALY":96.9269,"EPHEMERIS_TYPE":0,"CLASSIFICATION_TYPE":"U","NORAD_CAT_ID":59855,"ELEMENT_SET_NO":999,"REV_AT_EPOCH":7123,"BSTAR":8.3048e-5,"MEAN_MOTION_DOT":2.024e-5,"MEAN_MOTION_DDOT":0},{"OBJECT_NAME":"STARLINK-31691","OBJECT_ID":"2024-097X","EPOCH":"2025-08-19T14:15:24.959232","MEAN_MOTION":15.27577653,"ECCENTRICITY":6.68e-5,"INCLINATION":43.003,"RA_OF_ASC_NODE":335.2742,"ARG_OF_PERICENTER":276.0902,"MEAN_ANOMALY":83.9874,"EPHEMERIS_TYPE":0,"CLASSIFICATION_TYPE":"U","NORAD_CAT_ID":59856,"ELEMENT_SET_NO":999,"REV_AT_EPOCH":7101,"BSTAR":2.962e-6,"MEAN_MOTION_DOT":-1.8e-6,"MEAN_MOTION_DDOT":0},{"OBJECT_NAME":"STARLINK-31569","OBJECT_ID":"2024-097Y","EPOCH":"2025-08-20T06:48:47.780640","MEAN_MOTION":15.27580821,"ECCENTRICITY":0.0001689,"INCLINATION":43.0042,"RA_OF_ASC_NODE":331.8579,"ARG_OF_PERICENTER":272.4294,"MEAN_ANOMALY":87.6364,"EPHEMERIS_TYPE":0,"CLASSIFICATION_TYPE":"U","NORAD_CAT_ID":59857,"ELEMENT_SET_NO":999,"REV_AT_EPOCH":7113,"BSTAR":1.7037e-6,"MEAN_MOTION_DOT":-2.15e-6,"MEAN_MOTION_DDOT":0},{"OBJECT_NAME":"STARLINK-31654","OBJECT_ID":"2024-098A","EPOCH":"2025-08-19T17:18:55.751904","MEAN_MOTION":15.27560862,"ECCENTRICITY":9.59e-5,"INCLINATION":43.003,"RA_OF_ASC_NODE":331.1812,"ARG_OF_PERICENTER":282.8158,"MEAN_ANOMALY":77.2586,"EPHEMERIS_TYPE":0,"CLASSIFICATION_TYPE":"U","NORAD_CAT_ID":59858,"ELEMENT_SET_NO":999,"REV_AT_EPOCH":7103,"BSTAR":-3.9978e-6,"MEAN_MOTION_DOT":-3.72e-6,"MEAN_MOTION_DDOT":0},{"OBJECT_NAME":"STARLINK-31442","OBJECT_ID":"2024-098B","EPOCH":"2025-08-19T08:05:02.678784","MEAN_MOTION":15.27580478,"ECCENTRICITY":5.02e-5,"INCLINATION":43.0025,"RA_OF_ASC_NODE":344.6779,"ARG_OF_PERICENTER":232.6979,"MEAN_ANOMALY":127.3827,"EPHEMERIS_TYPE":0,"CLASSIFICATION_TYPE":"U","NORAD_CAT_ID":59859,"ELEMENT_SET_NO":999,"REV_AT_EPOCH":7085,"BSTAR":5.1788e-5,"MEAN_MOTION_DOT":1.164e-5,"MEAN_MOTION_DDOT":0},{"OBJECT_NAME":"STARLINK-31651","OBJECT_ID":"2024-098C","EPOCH":"2025-08-20T06:46:16.829472","MEAN_MOTION":15.27579831,"ECCENTRICITY":0.0001096,"INCLINATION":43.0029,"RA_OF_ASC_NODE":335.4255,"ARG_OF_PERICENTER":241.2811,"MEAN_ANOMALY":118.7931,"EPHEMERIS_TYPE":0,"CLASSIFICATION_TYPE":"U","NORAD_CAT_ID":59860,"ELEMENT_SET_NO":999,"REV_AT_EPOCH":7034,"BSTAR":-6.6874e-6,"MEAN_MOTION_DOT":-4.46e-6,"MEAN_MOTION_DDOT":0},{"OBJECT_NAME":"STARLINK-31584","OBJECT_ID":"2024-098E","EPOCH":"2025-08-20T08:05:38.100192","MEAN_MOTION":15.27575222,"ECCENTRICITY":8.91e-5,"INCLINATION":43.0033,"RA_OF_ASC_NODE":334.9828,"ARG_OF_PERICENTER":273.7314,"MEAN_ANOMALY":86.3436,"EPHEMERIS_TYPE":0,"CLASSIFICATION_TYPE":"U","NORAD_CAT_ID":59862,"ELEMENT_SET_NO":999,"REV_AT_EPOCH":7025,"BSTAR":-1.6385e-5,"MEAN_MOTION_DOT":-7.13e-6,"MEAN_MOTION_DDOT":0},{"OBJECT_NAME":"STARLINK-31950","OBJECT_ID":"2024-098F","EPOCH":"2025-08-20T08:31:32.812032","MEAN_MOTION":15.27487666,"ECCENTRICITY":5.12e-5,"INCLINATION":43.006,"RA_OF_ASC_NODE":335.1146,"ARG_OF_PERICENTER":250.3999,"MEAN_ANOMALY":109.6797,"EPHEMERIS_TYPE":0,"CLASSIFICATION_TYPE":"U","NORAD_CAT_ID":59863,"ELEMENT_SET_NO":999,"REV_AT_EPOCH":7040,"BSTAR":0.00074797,"MEAN_MOTION_DOT":0.00020319,"MEAN_MOTION_DDOT":0},{"OBJECT_NAME":"STARLINK-31931","OBJECT_ID":"2024-098G","EPOCH":"2025-08-19T14:07:33.777696","MEAN_MOTION":15.27577796,"ECCENTRICITY":7.36e-5,"INCLINATION":43.0013,"RA_OF_ASC_NODE":339.6794,"ARG_OF_PERICENTER":281.0005,"MEAN_ANOMALY":79.0764,"EPHEMERIS_TYPE":0,"CLASSIFICATION_TYPE":"U","NORAD_CAT_ID":59864,"ELEMENT_SET_NO":999,"REV_AT_EPOCH":7028,"BSTAR":3.0792e-6,"MEAN_MOTION_DOT":-1.77e-6,"MEAN_MOTION_DDOT":0},{"OBJECT_NAME":"STARLINK-31938","OBJECT_ID":"2024-098H","EPOCH":"2025-08-20T07:50:50.199360","MEAN_MOTION":15.27521134,"ECCENTRICITY":7.43e-5,"INCLINATION":43.0003,"RA_OF_ASC_NODE":334.8967,"ARG_OF_PERICENTER":232.0142,"MEAN_ANOMALY":128.0642,"EPHEMERIS_TYPE":0,"CLASSIFICATION_TYPE":"U","NORAD_CAT_ID":59865,"ELEMENT_SET_NO":999,"REV_AT_EPOCH":7105,"BSTAR":0.0004485,"MEAN_MOTION_DOT":0.00012078,"MEAN_MOTION_DDOT":0},{"OBJECT_NAME":"STARLINK-31941","OBJECT_ID":"2024-098J","EPOCH":"2025-08-19T13:22:51.144960","MEAN_MOTION":15.27581817,"ECCENTRICITY":0.000133,"INCLINATION":43.0016,"RA_OF_ASC_NODE":321.7842,"ARG_OF_PERICENTER":266.5132,"MEAN_ANOMALY":93.5568,"EPHEMERIS_TYPE":0,"CLASSIFICATION_TYPE":"U","NORAD_CAT_ID":59866,"ELEMENT_SET_NO":999,"REV_AT_EPOCH":7050,"BSTAR":4.3707e-6,"MEAN_MOTION_DOT":-1.42e-6,"MEAN_MOTION_DDOT":0},{"OBJECT_NAME":"STARLINK-31952","OBJECT_ID":"2024-098K","EPOCH":"2025-08-20T07:02:55.819104","MEAN_MOTION":15.27581104,"ECCENTRICITY":0.0001623,"INCLINATION":43.005,"RA_OF_ASC_NODE":335.5119,"ARG_OF_PERICENTER":272.0138,"MEAN_ANOMALY":88.0528,"EPHEMERIS_TYPE":0,"CLASSIFICATION_TYPE":"U","NORAD_CAT_ID":59867,"ELEMENT_SET_NO":999,"REV_AT_EPOCH":7039,"BSTAR":1.8797e-5,"MEAN_MOTION_DOT":2.55e-6,"MEAN_MOTION_DDOT":0},{"OBJECT_NAME":"STARLINK-31921","OBJECT_ID":"2024-098L","EPOCH":"2025-08-20T05:57:59.297472","MEAN_MOTION":15.2758063,"ECCENTRICITY":0.0002126,"INCLINATION":43.0057,"RA_OF_ASC_NODE":295.2764,"ARG_OF_PERICENTER":288.5521,"MEAN_ANOMALY":71.5099,"EPHEMERIS_TYPE":0,"CLASSIFICATION_TYPE":"U","NORAD_CAT_ID":59868,"ELEMENT_SET_NO":999,"REV_AT_EPOCH":7083,"BSTAR":2.5422e-5,"MEAN_MOTION_DOT":4.37e-6,"MEAN_MOTION_DDOT":0},{"OBJECT_NAME":"STARLINK-31760","OBJECT_ID":"2024-098M","EPOCH":"2025-08-20T07:17:43.894464","MEAN_MOTION":15.27581106,"ECCENTRICITY":0.0001315,"INCLINATION":43.0045,"RA_OF_ASC_NODE":335.5945,"ARG_OF_PERICENTER":266.3286,"MEAN_ANOMALY":93.7415,"EPHEMERIS_TYPE":0,"CLASSIFICATION_TYPE":"U","NORAD_CAT_ID":59869,"ELEMENT_SET_NO":999,"REV_AT_EPOCH":7039,"BSTAR":2.7041e-6,"MEAN_MOTION_DOT":-1.88e-6,"MEAN_MOTION_DDOT":0},{"OBJECT_NAME":"STARLINK-31945","OBJECT_ID":"2024-098N","EPOCH":"2025-08-20T07:16:21.870624","MEAN_MOTION":15.27581554,"ECCENTRICITY":0.0001172,"INCLINATION":42.9999,"RA_OF_ASC_NODE":331.2549,"ARG_OF_PERICENTER":273.3334,"MEAN_ANOMALY":86.7384,"EPHEMERIS_TYPE":0,"CLASSIFICATION_TYPE":"U","NORAD_CAT_ID":59870,"ELEMENT_SET_NO":999,"REV_AT_EPOCH":7045,"BSTAR":2.835e-5,"MEAN_MOTION_DOT":5.18e-6,"MEAN_MOTION_DDOT":0},{"OBJECT_NAME":"STARLINK-31937","OBJECT_ID":"2024-098P","EPOCH":"2025-08-20T06:43:58.035648","MEAN_MOTION":15.27584764,"ECCENTRICITY":0.0001425,"INCLINATION":43.0051,"RA_OF_ASC_NODE":328.498,"ARG_OF_PERICENTER":277.193,"MEAN_ANOMALY":82.876,"EPHEMERIS_TYPE":0,"CLASSIFICATION_TYPE":"U","NORAD_CAT_ID":59871,"ELEMENT_SET_NO":999,"REV_AT_EPOCH":7047,"BSTAR":4.1547e-6,"MEAN_MOTION_DOT":-1.48e-6,"MEAN_MOTION_DDOT":0},{"OBJECT_NAME":"STARLINK-31940","OBJECT_ID":"2024-098R","EPOCH":"2025-08-19T13:50:14.554176","MEAN_MOTION":15.27575214,"ECCENTRICITY":6.88e-5,"INCLINATION":43.0015,"RA_OF_ASC_NODE":331.8068,"ARG_OF_PERICENTER":275.5424,"MEAN_ANOMALY":84.535,"EPHEMERIS_TYPE":0,"CLASSIFICATION_TYPE":"U","NORAD_CAT_ID":59873,"ELEMENT_SET_NO":999,"REV_AT_EPOCH":7021,"BSTAR":2.795e-5,"MEAN_MOTION_DOT":5.07e-6,"MEAN_MOTION_DDOT":0},{"OBJECT_NAME":"STARLINK-31933","OBJECT_ID":"2024-098S","EPOCH":"2025-08-19T14:59:09.971808","MEAN_MOTION":15.27574945,"ECCENTRICITY":9.75e-5,"INCLINATION":43.0033,"RA_OF_ASC_NODE":339.0905,"ARG_OF_PERICENTER":265.7606,"MEAN_ANOMALY":94.3134,"EPHEMERIS_TYPE":0,"CLASSIFICATION_TYPE":"U","NORAD_CAT_ID":59874,"ELEMENT_SET_NO":999,"REV_AT_EPOCH":7094,"BSTAR":-1.4674e-5,"MEAN_MOTION_DOT":-6.66e-6,"MEAN_MOTION_DDOT":0},{"OBJECT_NAME":"STARLINK-31936","OBJECT_ID":"2024-098T","EPOCH":"2025-08-20T11:23:38.302368","MEAN_MOTION":15.27585661,"ECCENTRICITY":0.000142,"INCLINATION":43.0015,"RA_OF_ASC_NODE":302.0122,"ARG_OF_PERICENTER":272.0255,"MEAN_ANOMALY":88.0434,"EPHEMERIS_TYPE":0,"CLASSIFICATION_TYPE":"U","NORAD_CAT_ID":59875,"ELEMENT_SET_NO":999,"REV_AT_EPOCH":7079,"BSTAR":4.2528e-5,"MEAN_MOTION_DOT":9.08e-6,"MEAN_MOTION_DDOT":0},{"OBJECT_NAME":"STARLINK-31935","OBJECT_ID":"2024-098U","EPOCH":"2025-08-20T07:12:10.767168","MEAN_MOTION":15.27580954,"ECCENTRICITY":0.0001722,"INCLINATION":43.002,"RA_OF_ASC_NODE":335.5599,"ARG_OF_PERICENTER":274.6516,"MEAN_ANOMALY":85.4139,"EPHEMERIS_TYPE":0,"CLASSIFICATION_TYPE":"U","NORAD_CAT_ID":59876,"ELEMENT_SET_NO":999,"REV_AT_EPOCH":7040,"BSTAR":2.823e-5,"MEAN_MOTION_DOT":5.15e-6,"MEAN_MOTION_DDOT":0},{"OBJECT_NAME":"STARLINK-31934","OBJECT_ID":"2024-098V","EPOCH":"2025-08-20T06:19:13.302624","MEAN_MOTION":15.27575922,"ECCENTRICITY":0.0001031,"INCLINATION":43.0021,"RA_OF_ASC_NODE":331.8191,"ARG_OF_PERICENTER":270.3891,"MEAN_ANOMALY":89.6843,"EPHEMERIS_TYPE":0,"CLASSIFICATION_TYPE":"U","NORAD_CAT_ID":59877,"ELEMENT_SET_NO":999,"REV_AT_EPOCH":7044,"BSTAR":-2.2236e-5,"MEAN_MOTION_DOT":-8.74e-6,"MEAN_MOTION_DDOT":0},{"OBJECT_NAME":"STARLINK-31943","OBJECT_ID":"2024-098W","EPOCH":"2025-08-20T07:50:20.302368","MEAN_MOTION":15.27584352,"ECCENTRICITY":7.86e-5,"INCLINATION":43.0024,"RA_OF_ASC_NODE":339.2205,"ARG_OF_PERICENTER":248.674,"MEAN_ANOMALY":111.4027,"EPHEMERIS_TYPE":0,"CLASSIFICATION_TYPE":"U","NORAD_CAT_ID":59878,"ELEMENT_SET_NO":999,"REV_AT_EPOCH":7035,"BSTAR":0.00010236,"MEAN_MOTION_DOT":2.556e-5,"MEAN_MOTION_DDOT":0}]
